FENGYUN 1C DEB          
1 37424U 99025EGS 26059.61181652  .00001792  00000+0  70282-3 0  9997
2 37424  97.2000 178.5306 0214877  50.1888 311.7990 14.18417855696778
FENGYUN 1C DEB          
1 37427U 99025EGV 26059.67886594  .00007014  00000+0  40639-3 0  9999
2 37427  98.6310 214.8944 0180163  42.5154 318.9857 14.99837240614902
FENGYUN 1C DEB          
1 37428U 99025EGW 26056.83212840  .00004577  00000+0  15734-2 0  9990
2 37428  97.7190 276.6185 0054012 232.2927 127.3358 14.35611510645138
FENGYUN 1C DEB          
1 37430U 99025EGY 26062.99890497  .00005720  00000+0  22386-2 0  9999
2 37430  98.7563 142.5440 0020066 186.5483 173.5440 14.29769059628626
FENGYUN 1C DEB          
1 37432U 99025EHA 26054.80995763  .00004186  00000+0  80365-3 0  9991
2 37432  98.1832  71.4559 0182846  62.2104 299.7496 14.54035305 94387
FENGYUN 1C DEB          
1 37435U 99025EHD 26054.38674331  .00002139  00000+0  96471-3 0  9993
2 37435  98.6401  94.3231 0042176 161.4434 198.8294 14.22747274899723
FENGYUN 1C DEB          
1 37436U 99025EHE 26064.37864659  .00001100  00000+0  68141-3 0  9998
2 37436  98.9217 122.7724 0057783 277.1628  82.2973 14.06514411651605
FENGYUN 1C DEB          
1 37437U 99025EHF 26055.86199256  .00000736  00000+0  35041-3 0  9994
2 37437  98.5946  50.4513 0111118 194.2224 284.2948 14.19065449650429
FENGYUN 1C DEB          
1 37441U 99025EHK 26055.34335406  .00000976  00000+0  14219-2 0  9990
2 37441  99.1453 257.4436 0508804 239.5154 115.4787 13.14402020831391
FENGYUN 1C DEB          
1 37444U 99025EHN 26061.69146837  .00005091  00000+0  93158-3 0  9999
2 37444  99.0734 153.2496 0243388 110.1255 252.6301 14.48932739663081
FENGYUN 1C DEB          
1 37448U 99025EHS 26061.41500255  .00003588  00000+0  21214-2 0  9993
2 37448  99.3231 130.9173 0305882 204.7085 153.9155 13.87533716634805
FENGYUN 1C DEB          
1 37460U 99025EJE 26063.44487062  .00009897  00000+0  25491-2 0  9992
2 37460  98.3808 243.7192 0054075  42.5890 317.9478 14.49399393836724
FENGYUN 1C DEB          
1 37461U 99025EJF 26061.88102780  .00001213  00000+0  22156-2 0  9999
2 37461  99.8701 305.5749 0658123 151.4489 212.4363 12.79321562530598
FENGYUN 1C DEB          
1 37464U 99025EJJ 26061.14842831  .00003418  00000+0  30104-2 0  9990
2 37464 102.7050  11.7094 0453978 304.2208  51.6680 13.47779532619918
FENGYUN 1C DEB          
1 37470U 99025EJQ 26062.89786122  .00248234  00000+0  10892-1 0  9998
2 37470  98.6655 221.8402 0010667 260.7462  99.2564 15.20772500666864
FENGYUN 1C DEB          
1 37474U 99025EJU 26057.84099769  .00010319  00000+0  12931-2 0  9993
2 37474  99.1634 278.1490 0127498 258.5058 100.1809 14.76820790634987
