[{"OBJECT_NAME":"FENGYUN 1C DEB","OBJECT_ID":"1999-025EGS","EPOCH":"2026-02-28T14:41:00.947328","MEAN_MOTION":14.18417855,"ECCENTRICITY":0.02148771,"INCLINATION":97.2,"RA_OF_ASC_NODE":178.5306,"ARG_OF_PERICENTER":50.1888,"MEAN_ANOMALY":311.799,"EPHEMERIS_TYPE":0,"CLASSIFICATION_TYPE":"U","NORAD_CAT_ID":37424,"ELEMENT_SET_NO":999,"REV_AT_EPOCH":69677,"BSTAR":0.00070281865,"MEAN_MOTION_DOT":1.792e-5,"MEAN_MOTION_DDOT":0},{"OBJECT_NAME":"FENGYUN 1C DEB","OBJECT_ID":"1999-025EGV","EPOCH":"2026-02-28T16:17:34.017216","MEAN_MOTION":14.9983724,"ECCENTRICITY":0.01801634,"INCLINATION":98.631,"RA_OF_ASC_NODE":214.8944,"ARG_OF_PERICENTER":42.5154,"MEAN_ANOMALY":318.9857,"EPHEMERIS_TYPE":0,"CLASSIFICATION_TYPE":"U","NORAD_CAT_ID":37427,"ELEMENT_SET_NO":999,"REV_AT_EPOCH":61490,"BSTAR":0.00040638516,"MEAN_MOTION_DOT":7.014e-5,"MEAN_MOTION_DDOT":0},{"OBJECT_NAME":"FENGYUN 1C DEB","OBJECT_ID":"1999-025EGW","EPOCH":"2026-02-25T19:58:15.893760","MEAN_MOTION":14.3561151,"ECCENTRICITY":0.00540128,"INCLINATION":97.719,"RA_OF_ASC_NODE":276.6185,"ARG_OF_PERICENTER":232.2927,"MEAN_ANOMALY":127.3358,"EPHEMERIS_TYPE":0,"CLASSIFICATION_TYPE":"U","NORAD_CAT_ID":37428,"ELEMENT_SET_NO":999,"REV_AT_EPOCH":64513,"BSTAR":0.00157345,"MEAN_MOTION_DOT":4.577e-5,"MEAN_MOTION_DDOT":0},{"OBJECT_NAME":"FENGYUN 1C DEB","OBJECT_ID":"1999-025EGY","EPOCH":"2026-03-03T23:58:25.389408","MEAN_MOTION":14.29769059,"ECCENTRICITY":0.00200667,"INCLINATION":98.7563,"RA_OF_ASC_NODE":142.544,"ARG_OF_PERICENTER":186.5483,"MEAN_ANOMALY":173.544,"EPHEMERIS_TYPE":0,"CLASSIFICATION_TYPE":"U","NORAD_CAT_ID":37430,"ELEMENT_SET_NO":999,"REV_AT_EPOCH":62862,"BSTAR":0.0022385816,"MEAN_MOTION_DOT":5.72e-5,"MEAN_MOTION_DDOT":0},{"OBJECT_NAME":"FENGYUN 1C DEB","OBJECT_ID":"1999-025EHA","EPOCH":"2026-02-23T19:26:20.339232","MEAN_MOTION":14.54035305,"ECCENTRICITY":0.0182846,"INCLINATION":98.1832,"RA_OF_ASC_NODE":71.4559,"ARG_OF_PERICENTER":62.2104,"MEAN_ANOMALY":299.7496,"EPHEMERIS_TYPE":0,"CLASSIFICATION_TYPE":"U","NORAD_CAT_ID":37432,"ELEMENT_SET_NO":999,"REV_AT_EPOCH":9438,"BSTAR":0.00080365,"MEAN_MOTION_DOT":4.186e-5,"MEAN_MOTION_DDOT":0},{"OBJECT_NAME":"FENGYUN 1C DEB","OBJECT_ID":"1999-025EHD","EPOCH":"2026-02-23T09:16:54.621984","MEAN_MOTION":14.22747274,"ECCENTRICITY":0.00421769,"INCLINATION":98.6401,"RA_OF_ASC_NODE":94.3231,"ARG_OF_PERICENTER":161.4434,"MEAN_ANOMALY":198.8294,"EPHEMERIS_TYPE":0,"CLASSIFICATION_TYPE":"U","NORAD_CAT_ID":37435,"ELEMENT_SET_NO":999,"REV_AT_EPOCH":89972,"BSTAR":0.00096471444,"MEAN_MOTION_DOT":2.139e-5,"MEAN_MOTION_DDOT":0},{"OBJECT_NAME":"FENGYUN 1C DEB","OBJECT_ID":"1999-025EHE","EPOCH":"2026-03-05T09:05:15.065376","MEAN_MOTION":14.06514411,"ECCENTRICITY":0.0057783,"INCLINATION":98.9217,"RA_OF_ASC_NODE":122.7724,"ARG_OF_PERICENTER":277.1628,"MEAN_ANOMALY":82.2973,"EPHEMERIS_TYPE":0,"CLASSIFICATION_TYPE":"U","NORAD_CAT_ID":37436,"ELEMENT_SET_NO":999,"REV_AT_EPOCH":65160,"BSTAR":0.00068141,"MEAN_MOTION_DOT":1.1e-5,"MEAN_MOTION_DDOT":0},{"OBJECT_NAME":"FENGYUN 1C DEB","OBJECT_ID":"1999-025EHF","EPOCH":"2026-02-24T20:41:16.157184","MEAN_MOTION":14.19065449,"ECCENTRICITY":0.0111118,"INCLINATION":98.5946,"RA_OF_ASC_NODE":50.4513,"ARG_OF_PERICENTER":194.2224,"MEAN_ANOMALY":284.2948,"EPHEMERIS_TYPE":0,"CLASSIFICATION_TYPE":"U","NORAD_CAT_ID":37437,"ELEMENT_SET_NO":999,"REV_AT_EPOCH":65042,"BSTAR":0.00035041,"MEAN_MOTION_DOT":7.36e-6,"MEAN_MOTION_DDOT":0},{"OBJECT_NAME":"FENGYUN 1C DEB","OBJECT_ID":"1999-025EHK","EPOCH":"2026-02-24T08:14:25.790784","MEAN_MOTION":13.1440202,"ECCENTRICITY":0.0508804,"INCLINATION":99.1453,"RA_OF_ASC_NODE":257.4436,"ARG_OF_PERICENTER":239.5154,"MEAN_ANOMALY":115.4787,"EPHEMERIS_TYPE":0,"CLASSIFICATION_TYPE":"U","NORAD_CAT_ID":37441,"ELEMENT_SET_NO":999,"REV_AT_EPOCH":83139,"BSTAR":0.0014219167,"MEAN_MOTION_DOT":9.76e-6,"MEAN_MOTION_DDOT":0},{"OBJECT_NAME":"FENGYUN 1C DEB","OBJECT_ID":"1999-025EHN","EPOCH":"2026-03-02T16:35:42.867168","MEAN_MOTION":14.48932739,"ECCENTRICITY":0.02433889,"INCLINATION":99.0734,"RA_OF_ASC_NODE":153.2496,"ARG_OF_PERICENTER":110.1255,"MEAN_ANOMALY":252.6301,"EPHEMERIS_TYPE":0,"CLASSIFICATION_TYPE":"U","NORAD_CAT_ID":37444,"ELEMENT_SET_NO":999,"REV_AT_EPOCH":66308,"BSTAR":0.00093157503,"MEAN_MOTION_DOT":5.091e-5,"MEAN_MOTION_DDOT":0},{"OBJECT_NAME":"FENGYUN 1C DEB","OBJECT_ID":"1999-025EHS","EPOCH":"2026-03-02T09:57:36.220320","MEAN_MOTION":13.87533716,"ECCENTRICITY":0.0305882,"INCLINATION":99.3231,"RA_OF_ASC_NODE":130.9173,"ARG_OF_PERICENTER":204.7085,"MEAN_ANOMALY":153.9155,"EPHEMERIS_TYPE":0,"CLASSIFICATION_TYPE":"U","NORAD_CAT_ID":37448,"ELEMENT_SET_NO":999,"REV_AT_EPOCH":63480,"BSTAR":0.0021214147,"MEAN_MOTION_DOT":3.588e-5,"MEAN_MOTION_DDOT":0},{"OBJECT_NAME":"FENGYUN 1C DEB","OBJECT_ID":"1999-025EJE","EPOCH":"2026-03-04T10:40:36.821568","MEAN_MOTION":14.49399393,"ECCENTRICITY":0.00540757,"INCLINATION":98.3808,"RA_OF_ASC_NODE":243.7192,"ARG_OF_PERICENTER":42.589,"MEAN_ANOMALY":317.9478,"EPHEMERIS_TYPE":0,"CLASSIFICATION_TYPE":"U","NORAD_CAT_ID":37460,"ELEMENT_SET_NO":999,"REV_AT_EPOCH":83672,"BSTAR":0.0025490523,"MEAN_MOTION_DOT":9.897e-5,"MEAN_MOTION_DDOT":0},{"OBJECT_NAME":"FENGYUN 1C DEB","OBJECT_ID":"1999-025EJF","EPOCH":"2026-03-02T21:08:40.801920","MEAN_MOTION":12.79321562,"ECCENTRICITY":0.0658123,"INCLINATION":99.8701,"RA_OF_ASC_NODE":305.5749,"ARG_OF_PERICENTER":151.4489,"MEAN_ANOMALY":212.4363,"EPHEMERIS_TYPE":0,"CLASSIFICATION_TYPE":"U","NORAD_CAT_ID":37461,"ELEMENT_SET_NO":999,"REV_AT_EPOCH":53059,"BSTAR":0.0022156,"MEAN_MOTION_DOT":1.213e-5,"MEAN_MOTION_DDOT":0},{"OBJECT_NAME":"FENGYUN 1C DEB","OBJECT_ID":"1999-025EJJ","EPOCH":"2026-03-02T03:33:44.205984","MEAN_MOTION":13.47779532,"ECCENTRICITY":0.04539784,"INCLINATION":102.705,"RA_OF_ASC_NODE":11.7094,"ARG_OF_PERICENTER":304.2208,"MEAN_ANOMALY":51.668,"EPHEMERIS_TYPE":0,"CLASSIFICATION_TYPE":"U","NORAD_CAT_ID":37464,"ELEMENT_SET_NO":999,"REV_AT_EPOCH":61991,"BSTAR":0.0030103796,"MEAN_MOTION_DOT":3.418e-5,"MEAN_MOTION_DDOT":0},{"OBJECT_NAME":"FENGYUN 1C DEB","OBJECT_ID":"1999-025EJQ","EPOCH":"2026-03-03T21:32:55.209408","MEAN_MOTION":15.207725,"ECCENTRICITY":0.0010667,"INCLINATION":98.6655,"RA_OF_ASC_NODE":221.8402,"ARG_OF_PERICENTER":260.7462,"MEAN_ANOMALY":99.2564,"EPHEMERIS_TYPE":0,"CLASSIFICATION_TYPE":"U","NORAD_CAT_ID":37470,"ELEMENT_SET_NO":999,"REV_AT_EPOCH":66686,"BSTAR":0.010892,"MEAN_MOTION_DOT":0.00248234,"MEAN_MOTION_DDOT":0},{"OBJECT_NAME":"FENGYUN 1C DEB","OBJECT_ID":"1999-025EJU","EPOCH":"2026-02-26T20:11:02.200416","MEAN_MOTION":14.7682079,"ECCENTRICITY":0.01274981,"INCLINATION":99.1634,"RA_OF_ASC_NODE":278.149,"ARG_OF_PERICENTER":258.5058,"MEAN_ANOMALY":100.1809,"EPHEMERIS_TYPE":0,"CLASSIFICATION_TYPE":"U","NORAD_CAT_ID":37474,"ELEMENT_SET_NO":999,"REV_AT_EPOCH":63498,"BSTAR":0.0012931344,"MEAN_MOTION_DOT":0.00010319,"MEAN_MOTION_DDOT":0}]
